{
  "norad_id": 65568,
  "name": "PRAETORIAN SDA_605",
  "history": [
    {
      "epoch": "2026-03-28T16:25:54.622272Z",
      "apogee_km": 958.2089220612843,
      "perigee_km": 944.5683816421615,
      "latitude_deg": -3.310191563870605e-05,
      "longitude_deg": 12.648334647545902,
      "height_km": 950.040902067934,
      "semi_major_axis_km": 7329.525651851723,
      "eccentricity": 0.00093052,
      "inclination_deg": 81.2978,
      "raan_deg": 85.2275,
      "arg_perigee_deg": 52.024,
      "mean_anomaly_deg": 308.1755,
      "mean_motion_rev_day": 13.83531203
    },
    {
      "epoch": "2026-03-29T02:50:44.345184Z",
      "apogee_km": 958.1997785405247,
      "perigee_km": 944.5771225381523,
      "latitude_deg": 1.7421198634799325e-05,
      "longitude_deg": -144.38801658096915,
      "height_km": 949.9469626157194,
      "semi_major_axis_km": 7329.525450539339,
      "eccentricity": 0.0009293,
      "inclination_deg": 81.2979,
      "raan_deg": 84.826,
      "arg_perigee_deg": 50.9542,
      "mean_anomaly_deg": 309.244,
      "mean_motion_rev_day": 13.8353126
    },
    {
      "epoch": "2026-03-30T01:24:32.064480Z",
      "apogee_km": 958.1785453206212,
      "perigee_km": 944.5969359761984,
      "latitude_deg": 6.17050523067769e-05,
      "longitude_deg": -124.63367969348097,
      "height_km": 949.7487093466259,
      "semi_major_axis_km": 7329.5247406484095,
      "eccentricity": 0.0009265,
      "inclination_deg": 81.2979,
      "raan_deg": 83.9558,
      "arg_perigee_deg": 48.6218,
      "mean_anomaly_deg": 311.5734,
      "mean_motion_rev_day": 13.83531461
    },
    {
      "epoch": "2026-03-30T06:36:56.922912Z",
      "apogee_km": 958.170481902318,
      "perigee_km": 944.6048510591027,
      "latitude_deg": 7.232645707754116e-06,
      "longitude_deg": 156.8480954684281,
      "height_km": 949.707286149977,
      "semi_major_axis_km": 7329.52466648071,
      "eccentricity": 0.00092541,
      "inclination_deg": 81.298,
      "raan_deg": 83.755,
      "arg_perigee_deg": 48.0928,
      "mean_anomaly_deg": 312.1016,
      "mean_motion_rev_day": 13.83531482
    },
    {
      "epoch": "2026-03-30T10:05:13.494048Z",
      "apogee_km": 958.167210014607,
      "perigee_km": 944.6078827847496,
      "latitude_deg": -1.808848196283162e-05,
      "longitude_deg": 104.50268539682652,
      "height_km": 949.6784091178947,
      "semi_major_axis_km": 7329.524546399678,
      "eccentricity": 0.00092498,
      "inclination_deg": 81.298,
      "raan_deg": 83.6212,
      "arg_perigee_deg": 47.7402,
      "mean_anomaly_deg": 312.4537,
      "mean_motion_rev_day": 13.83531516
    },
    {
      "epoch": "2026-03-30T22:14:11.486976Z",
      "apogee_km": 958.1500957025364,
      "perigee_km": 944.6241918476135,
      "latitude_deg": -1.446969465460702e-05,
      "longitude_deg": -78.7064105400111,
      "height_km": 949.5789386857812,
      "semi_major_axis_km": 7329.524143775075,
      "eccentricity": 0.0009227,
      "inclination_deg": 81.298,
      "raan_deg": 83.1527,
      "arg_perigee_deg": 46.4602,
      "mean_anomaly_deg": 313.7319,
      "mean_motion_rev_day": 13.8353163
    },
    {
      "epoch": "2026-03-31T17:19:42.614400Z",
      "apogee_km": 958.1283239662762,
      "perigee_km": 944.6449322999633,
      "latitude_deg": -1.834295723599997e-05,
      "longitude_deg": -6.60648738209647,
      "height_km": 949.4277179827975,
      "semi_major_axis_km": 7329.52362813312,
      "eccentricity": 0.0009198,
      "inclination_deg": 81.2982,
      "raan_deg": 82.4164,
      "arg_perigee_deg": 44.4821,
      "mean_anomaly_deg": 315.7072,
      "mean_motion_rev_day": 13.83531776
    },
    {
      "epoch": "2026-04-01T15:53:30.300000Z",
      "apogee_km": 958.1015452929432,
      "perigee_km": 944.6709269151061,
      "latitude_deg": 7.020075213949032e-05,
      "longitude_deg": 13.148197719094984,
      "height_km": 949.2542992315804,
      "semi_major_axis_km": 7329.523236104024,
      "eccentricity": 0.0009162,
      "inclination_deg": 81.2984,
      "raan_deg": 81.5464,
      "arg_perigee_deg": 42.0859,
      "mean_anomaly_deg": 318.1,
      "mean_motion_rev_day": 13.83531887
    },
    {
      "epoch": "2026-04-02T16:11:26.258208Z",
      "apogee_km": 958.0708791551679,
      "perigee_km": 944.7003639888962,
      "latitude_deg": 2.6341646462276106e-05,
      "longitude_deg": 6.730113298637599,
      "height_km": 949.0814105660152,
      "semi_major_axis_km": 7329.522621572031,
      "eccentricity": 0.0009121,
      "inclination_deg": 81.2985,
      "raan_deg": 80.6094,
      "arg_perigee_deg": 39.5237,
      "mean_anomaly_deg": 320.6583,
      "mean_motion_rev_day": 13.83532061
    },
    {
      "epoch": "2026-04-02T23:07:59.384928Z",
      "apogee_km": 958.065107937322,
      "perigee_km": 944.7052946401445,
      "latitude_deg": -3.739631843072482e-05,
      "longitude_deg": -97.96074399280081,
      "height_km": 949.0341567281705,
      "semi_major_axis_km": 7329.5222012887325,
      "eccentricity": 0.00091137,
      "inclination_deg": 81.2986,
      "raan_deg": 80.3417,
      "arg_perigee_deg": 38.8288,
      "mean_anomaly_deg": 321.3521,
      "mean_motion_rev_day": 13.8353218
    },
    {
      "epoch": "2026-04-03T16:29:22.211232Z",
      "apogee_km": 958.0495681860093,
      "perigee_km": 944.7200997787286,
      "latitude_deg": -4.66766747268176e-05,
      "longitude_deg": 0.3120453860956249,
      "height_km": 948.9194673873059,
      "semi_major_axis_km": 7329.521833982369,
      "eccentricity": 0.0009093,
      "inclination_deg": 81.2987,
      "raan_deg": 79.6724,
      "arg_perigee_deg": 37.0578,
      "mean_anomaly_deg": 323.1204,
      "mean_motion_rev_day": 13.83532284
    },
    {
      "epoch": "2026-04-04T01:10:03.617472Z",
      "apogee_km": 958.0373189351021,
      "perigee_km": 944.7320382319695,
      "latitude_deg": -2.681920048809744e-05,
      "longitude_deg": -130.5514773725064,
      "height_km": 948.8672091824966,
      "semi_major_axis_km": 7329.5216785835355,
      "eccentricity": 0.00090765,
      "inclination_deg": 81.2987,
      "raan_deg": 79.3378,
      "arg_perigee_deg": 36.1621,
      "mean_anomaly_deg": 324.0147,
      "mean_motion_rev_day": 13.83532328
    },
    {
      "epoch": "2026-04-07T21:09:54.380160Z",
      "apogee_km": 958.277230864448,
      "perigee_km": 945.2490663403232,
      "latitude_deg": 3.8170159118926154e-05,
      "longitude_deg": -77.83778680598338,
      "height_km": 948.8376272689297,
      "semi_major_axis_km": 7329.900148602385,
      "eccentricity": 0.0008887,
      "inclination_deg": 81.2992,
      "raan_deg": 75.7912,
      "arg_perigee_deg": 27.4329,
      "mean_anomaly_deg": 332.7295,
      "mean_motion_rev_day": 13.83425174
    },
    {
      "epoch": "2026-04-08T11:03:04.500000Z",
      "apogee_km": 958.2549672924697,
      "perigee_km": 945.2710755904882,
      "latitude_deg": 3.8519649279434045e-05,
      "longitude_deg": 72.76446179254249,
      "height_km": 948.7792139807885,
      "semi_major_axis_km": 7329.900021441478,
      "eccentricity": 0.00088568,
      "inclination_deg": 81.2993,
      "raan_deg": 75.2559,
      "arg_perigee_deg": 25.891,
      "mean_anomaly_deg": 334.2688,
      "mean_motion_rev_day": 13.8342521
    },
    {
      "epoch": "2026-04-09T14:49:24.729312Z",
      "apogee_km": 958.2149066722714,
      "perigee_km": 945.3098857952637,
      "latitude_deg": 3.9099652297867365e-05,
      "longitude_deg": 13.969002363643675,
      "height_km": 948.677544661188,
      "semi_major_axis_km": 7329.899396233767,
      "eccentricity": 0.0008803,
      "inclination_deg": 81.2995,
      "raan_deg": 74.1853,
      "arg_perigee_deg": 22.9393,
      "mean_anomaly_deg": 337.2155,
      "mean_motion_rev_day": 13.83425387
    },
    {
      "epoch": "2026-04-10T08:10:52.381056Z",
      "apogee_km": 958.1986854391989,
      "perigee_km": 945.3259162870227,
      "latitude_deg": 1.4731520944370513e-05,
      "longitude_deg": 112.22182649849509,
      "height_km": 948.623172135264,
      "semi_major_axis_km": 7329.8993008631105,
      "eccentricity": 0.0008781,
      "inclination_deg": 81.2996,
      "raan_deg": 73.5162,
      "arg_perigee_deg": 21.2936,
      "mean_anomaly_deg": 338.8584,
      "mean_motion_rev_day": 13.83425414
    },
    {
      "epoch": "2026-04-11T20:37:56.410752Z",
      "apogee_km": 958.1512720674891,
      "perigee_km": 945.3723265008175,
      "latitude_deg": 1.3580056476966165e-05,
      "longitude_deg": -77.44706126588636,
      "height_km": 948.5270406950934,
      "semi_major_axis_km": 7329.898799284153,
      "eccentricity": 0.0008717,
      "inclination_deg": 81.2998,
      "raan_deg": 72.1111,
      "arg_perigee_deg": 17.502,
      "mean_anomaly_deg": 342.6435,
      "mean_motion_rev_day": 13.83425556
    },
    {
      "epoch": "2026-04-13T05:36:42.891264Z",
      "apogee_km": 958.0999606573077,
      "perigee_km": 945.4227548496056,
      "latitude_deg": 5.9574942352658264e-05,
      "longitude_deg": 145.23355320710962,
      "height_km": 948.4696389979496,
      "semi_major_axis_km": 7329.898357753456,
      "eccentricity": 0.00086476,
      "inclination_deg": 81.3,
      "raan_deg": 70.8398,
      "arg_perigee_deg": 13.9518,
      "mean_anomaly_deg": 346.1876,
      "mean_motion_rev_day": 13.83425681
    },
    {
      "epoch": "2026-04-14T19:47:55.635936Z",
      "apogee_km": 958.0432161748404,
      "perigee_km": 945.4783054332693,
      "latitude_deg": -5.071091566508401e-05,
      "longitude_deg": -70.60984385377105,
      "height_km": 948.430777104986,
      "semi_major_axis_km": 7329.897760804055,
      "eccentricity": 0.0008571,
      "inclination_deg": 81.3003,
      "raan_deg": 69.3678,
      "arg_perigee_deg": 9.7893,
      "mean_anomaly_deg": 350.3428,
      "mean_motion_rev_day": 13.8342585
    }
  ]
}